<?xml version="1.0" encoding="UTF-8"?>
<kml xmlns="http://www.opengis.net/kml/2.2" xmlns:gx="http://www.google.com/kml/ext/2.2" xmlns:kml="http://www.opengis.net/kml/2.2" xmlns:atom="http://www.w3.org/2005/Atom">
<Document>
	<name>2026-FEN-eteints.kml</name>
	<StyleMap id="m_ylw-pushpin">
		<Pair>
			<key>normal</key>
			<styleUrl>#s_ylw-pushpin</styleUrl>
		</Pair>
		<Pair>
			<key>highlight</key>
			<styleUrl>#s_ylw-pushpin_hl1</styleUrl>
		</Pair>
	</StyleMap>
	<Style id="s_ylw-pushpin">
		<IconStyle>
			<scale>1.1</scale>
			<Icon>
				<href>http://maps.google.com/mapfiles/kml/paddle/grn-blank.png</href>
			</Icon>
			<hotSpot x="32" y="1" xunits="pixels" yunits="pixels"/>
		</IconStyle>
		<ListStyle>
			<ItemIcon>
				<href>http://maps.google.com/mapfiles/kml/paddle/grn-blank-lv.png</href>
			</ItemIcon>
		</ListStyle>
	</Style>
	<Style id="s_ylw-pushpin_hl1">
		<IconStyle>
			<scale>1.3</scale>
			<Icon>
				<href>http://maps.google.com/mapfiles/kml/paddle/grn-blank.png</href>
			</Icon>
			<hotSpot x="32" y="1" xunits="pixels" yunits="pixels"/>
		</IconStyle>
		<ListStyle>
			<ItemIcon>
				<href>http://maps.google.com/mapfiles/kml/paddle/grn-blank-lv.png</href>
			</ItemIcon>
		</ListStyle>
	</Style>
	<Folder>
		<name>🟢. Phase de lutte : éteint</name>
		<open>1</open>
		<Style>
			<ListStyle>
				<listItemType>radioFolder</listItemType>
				<bgColor>00ffffff</bgColor>
				<maxSnippetLines>2</maxSnippetLines>
			</ListStyle>
		</Style>
		<Placemark>
			<name>Capbreton (40) - 17.06.2026 (15H30)</name>
			<LookAt>
				<longitude>-1.389891668655528</longitude>
				<latitude>43.64940966309953</latitude>
				<altitude>0</altitude>
				<heading>-2.669696829428959</heading>
				<tilt>4.945621646086726</tilt>
				<range>12714.39769936442</range>
				<gx:altitudeMode>relativeToSeaFloor</gx:altitudeMode>
			</LookAt>
			<styleUrl>#m_ylw-pushpin</styleUrl>
			<Point>
				<gx:drawOrder>1</gx:drawOrder>
				<coordinates>-1.416889012946153,43.63479010359949,0</coordinates>
			</Point>
		</Placemark>
		<Placemark>
			<name>Luxey (40) - 17.06.2026 (15H30)</name>
			<LookAt>
				<longitude>-0.4818491698773485</longitude>
				<latitude>44.17832005158195</latitude>
				<altitude>0</altitude>
				<heading>-2.022166357614549</heading>
				<tilt>13.17320781046914</tilt>
				<range>2405.408896078055</range>
				<gx:altitudeMode>relativeToSeaFloor</gx:altitudeMode>
			</LookAt>
			<styleUrl>#m_ylw-pushpin</styleUrl>
			<Point>
				<gx:drawOrder>1</gx:drawOrder>
				<coordinates>-0.4904361905886712,44.17778347073862,0</coordinates>
			</Point>
		</Placemark>
		<Placemark>
			<name>Pindères (47) - 21.05.2026 (17H00)</name>
			<visibility>0</visibility>
			<description>🔥 Pindères (47) - 21.05.2026 (17H00)
Evènement : Feu de forêt
.
#incendie #FeuxDeForêt
.
➡️ ➡️ Suivi complet :: https://discord.gg/jB8Bzpbx7V
➡️ ➡️ Suivi complet :: https://pirenfrance.wixsite.com/website
--
ℹ️﻿  Situation à : 18H45
Phase de lutte : 🟢 Eteint
Surface : 0,15 hectares
Moyens : 👨‍🚒=  / 🚒= 6 / ✈ABE=  / 🚁 HBE=</description>
			<LookAt>
				<longitude>0.0008381656859968167</longitude>
				<latitude>44.2524829525715</latitude>
				<altitude>0</altitude>
				<heading>-7.158641389856451e-05</heading>
				<tilt>21.52512601170559</tilt>
				<range>1453.333870945385</range>
				<gx:altitudeMode>relativeToSeaFloor</gx:altitudeMode>
			</LookAt>
			<styleUrl>#m_ylw-pushpin</styleUrl>
			<Point>
				<gx:drawOrder>1</gx:drawOrder>
				<coordinates>0.001319952262790469,44.25339655463365,0</coordinates>
			</Point>
		</Placemark>
		<Placemark>
			<name>Saint-Gor (40) - 25.05.2026 (17H45)</name>
			<visibility>0</visibility>
			<description>🔥 Saint-Gor (40) - 25.05.2026 (17H45)
Evènement : Feu de forêt
.
#incendie #FeuxDeForêt
.
➡️ ➡️ Suivi complet :: https://discord.gg/jB8Bzpbx7V
➡️ ➡️ Suivi complet :: https://pirenfrance.wixsite.com/website</description>
			<LookAt>
				<longitude>-0.2145862573399171</longitude>
				<latitude>44.05861899601737</latitude>
				<altitude>0</altitude>
				<heading>0.0001398822873140822</heading>
				<tilt>26.05224833052303</tilt>
				<range>665.9011252359214</range>
				<gx:altitudeMode>relativeToSeaFloor</gx:altitudeMode>
			</LookAt>
			<styleUrl>#m_ylw-pushpin</styleUrl>
			<Point>
				<gx:drawOrder>1</gx:drawOrder>
				<coordinates>-0.214586254425988,44.0589849577402,0</coordinates>
			</Point>
		</Placemark>
		<Placemark>
			<name>Messanges (40) - 23.04.2026 (18H30)</name>
			<visibility>0</visibility>
			<description>Evènement : Feu de forêt
.
#incendie #FeuxDeForêt
.
➡️ ➡️ Suivi complet :: https://discord.gg/jB8Bzpbx7V
➡️ ➡️ Suivi complet :: https://pirenfrance.wixsite.com/website</description>
			<LookAt>
				<longitude>-1.336813140676792</longitude>
				<latitude>43.82020716347704</latitude>
				<altitude>0</altitude>
				<heading>-0.02916874304078478</heading>
				<tilt>17.60060775633489</tilt>
				<range>6932.823929271697</range>
				<gx:altitudeMode>relativeToSeaFloor</gx:altitudeMode>
			</LookAt>
			<styleUrl>#m_ylw-pushpin</styleUrl>
			<Point>
				<gx:drawOrder>1</gx:drawOrder>
				<coordinates>-1.337649363841854,43.82600988813638,0</coordinates>
			</Point>
		</Placemark>
		<Placemark>
			<name>Cestas (33) - 23.04.2026 (13H30)</name>
			<visibility>0</visibility>
			<description>Evènement : Feu de forêt

 .

 #incendie #FeuxDeForêt . 

.

➡️ ➡️ Suivi complet :: https://discord.gg/jB8Bzpbx7V 

➡️ ➡️ Suivi complet :: https://pirenfrance.wixsite.com/website</description>
			<LookAt>
				<longitude>-0.7894409374345478</longitude>
				<latitude>44.71760647247208</latitude>
				<altitude>0</altitude>
				<heading>-2.271426367432305</heading>
				<tilt>15.81634516093383</tilt>
				<range>4416.664959891198</range>
				<gx:altitudeMode>relativeToSeaFloor</gx:altitudeMode>
			</LookAt>
			<styleUrl>#m_ylw-pushpin</styleUrl>
			<Point>
				<gx:drawOrder>1</gx:drawOrder>
				<coordinates>-0.7991121363994647,44.72132468657567,0</coordinates>
			</Point>
		</Placemark>
		<Placemark>
			<name>Saint-Junien-la-Bregère (23) - 16/04/2026</name>
			<visibility>0</visibility>
			<description>Nature de l&apos;évènement : Feu de forêt
.
#incendie #FeuxDeForêt
.
➡️ ➡️ Suivi complet :: https://discord.gg/jB8Bzpbx7V
➡️ ➡️ Suivi complet :: https://pirenfrance.wixsite.com/website</description>
			<LookAt>
				<longitude>1.71898599992595</longitude>
				<latitude>45.89250586066992</latitude>
				<altitude>0</altitude>
				<heading>0.007858226516304462</heading>
				<tilt>4.339359480130355</tilt>
				<range>3049.448968382924</range>
				<gx:altitudeMode>relativeToSeaFloor</gx:altitudeMode>
			</LookAt>
			<styleUrl>#m_ylw-pushpin</styleUrl>
			<Point>
				<gx:drawOrder>1</gx:drawOrder>
				<coordinates>1.714001149354929,45.89350534676292,0</coordinates>
			</Point>
		</Placemark>
		<Placemark>
			<name>Saint Jean d&apos;Illac (33) - 15/04/2026 (16:00)</name>
			<visibility>0</visibility>
			<description>Nature de l&apos;évènement : Feu de broussailles
.
#incendie #FeuxDeForêt
.
➡️ ➡️ Suivi complet :: https://discord.gg/jB8Bzpbx7V
➡️ ➡️ Suivi complet :: https://pirenfrance.wixsite.com/website</description>
			<LookAt>
				<longitude>-0.8203879717806785</longitude>
				<latitude>44.80405672661984</latitude>
				<altitude>0</altitude>
				<heading>154.5145499104031</heading>
				<tilt>45.30259323439692</tilt>
				<range>410.5175477786422</range>
				<gx:altitudeMode>relativeToSeaFloor</gx:altitudeMode>
			</LookAt>
			<styleUrl>#m_ylw-pushpin</styleUrl>
			<Point>
				<gx:drawOrder>1</gx:drawOrder>
				<coordinates>-0.8207218397245097,44.80406137640821,0</coordinates>
			</Point>
		</Placemark>
		<Placemark>
			<name>SAINT MARTIN CHATEAU (23)</name>
			<visibility>0</visibility>
			<description>Nature de l&apos;évènement : Feu de broussailles
Phase de lutte : en cours
.
#incendie #FeuxDeForêt
.
➡️ ➡️ Suivi complet :: https://discord.gg/jB8Bzpbx7V</description>
			<LookAt>
				<longitude>1.799423423312407</longitude>
				<latitude>45.85735153760879</latitude>
				<altitude>0</altitude>
				<heading>-6.314311628552931e-06</heading>
				<tilt>0</tilt>
				<range>12022.69563219564</range>
				<gx:altitudeMode>relativeToSeaFloor</gx:altitudeMode>
			</LookAt>
			<styleUrl>#m_ylw-pushpin</styleUrl>
			<Point>
				<gx:drawOrder>1</gx:drawOrder>
				<coordinates>1.799423423312407,45.85735153760878,0</coordinates>
			</Point>
		</Placemark>
		<Placemark>
			<name>POMPEJAC (33) - 09/04/2026 (20:30)</name>
			<visibility>0</visibility>
			<open>1</open>
			<description>Nature de l&apos;évènement : Feu de broussailles
.
Situation : 2000m²
.
➡️ ➡️ Suivi complet :: https://discord.gg/jB8Bzpbx7V
➡️ ➡️ Suivi complet :: https://pirenfrance.wixsite.com/website</description>
			<LookAt>
				<longitude>-0.2898932175324531</longitude>
				<latitude>44.40493005826652</latitude>
				<altitude>0</altitude>
				<heading>0.0005327876558984295</heading>
				<tilt>14.13834835008406</tilt>
				<range>800.1998473772182</range>
				<gx:altitudeMode>relativeToSeaFloor</gx:altitudeMode>
			</LookAt>
			<styleUrl>#m_ylw-pushpin</styleUrl>
			<Point>
				<gx:drawOrder>1</gx:drawOrder>
				<coordinates>-0.2918042316667102,44.40529204593555,0</coordinates>
			</Point>
		</Placemark>
		<Placemark>
			<name>Le Pian Médoc (33) - 09/04/2026 (16:00)</name>
			<visibility>0</visibility>
			<description>Nature de l&apos;évènement : Feu de forêt
.
#incendie #FeuxDeForêt
.
➡️ ➡️ Suivi complet :: https://discord.gg/jB8Bzpbx7V
➡️ ➡️ Suivi complet :: https://pirenfrance.wixsite.com/website</description>
			<LookAt>
				<longitude>-0.6515225097165622</longitude>
				<latitude>44.95071783587694</latitude>
				<altitude>0</altitude>
				<heading>-0.8031569784176085</heading>
				<tilt>18.30343695544557</tilt>
				<range>1368.339105350969</range>
				<gx:altitudeMode>relativeToSeaFloor</gx:altitudeMode>
			</LookAt>
			<styleUrl>#m_ylw-pushpin</styleUrl>
			<Point>
				<gx:drawOrder>1</gx:drawOrder>
				<coordinates>-0.6546700429405194,44.94963740630586,0</coordinates>
			</Point>
		</Placemark>
		<Placemark>
			<name>Reignac (33) - 08/04/2026 (17h00)</name>
			<visibility>0</visibility>
			<description>Nature de l&apos;évènement : Feu de forêt
.
Situation : 1 hectare
Moyens : 👨‍= xx  /  🚒= xx  /  ✈ABE= xx  /  🚁 HBE= xx</description>
			<LookAt>
				<longitude>-0.5463683815754539</longitude>
				<latitude>45.22757861418464</latitude>
				<altitude>0</altitude>
				<heading>-0.7299657235174365</heading>
				<tilt>12.02934091279584</tilt>
				<range>8264.835523012769</range>
				<gx:altitudeMode>relativeToSeaFloor</gx:altitudeMode>
			</LookAt>
			<styleUrl>#m_ylw-pushpin</styleUrl>
			<Point>
				<gx:drawOrder>1</gx:drawOrder>
				<coordinates>-0.5604767497076035,45.2366494743674,0</coordinates>
			</Point>
		</Placemark>
		<Placemark>
			<name>Marions (33) - 29/03/2026 (18h30)</name>
			<visibility>0</visibility>
			<description>Nature de l&apos;évènement : Feu de forêt
Phase de lutte : en cours
.
#incendie #FeuxDeForêt
.
➡️ ➡️ Suivi complet :: https://discord.gg/jB8Bzpbx7V
➡️ ➡️ Suivi complet :: https://pirenfrance.wixsite.com/website

--
19:30 - Situation : Fixé - 3 hectares
.
Moyens : 👨‍= xx / 🚒= 14 / ✈ABE= xx / 🚁 HBE= xx
--
20:45 - Situation feu maîtrisé</description>
			<LookAt>
				<longitude>-0.07418514555676103</longitude>
				<latitude>44.40482315994485</latitude>
				<altitude>0</altitude>
				<heading>0.1634990065965308</heading>
				<tilt>28.29589884992703</tilt>
				<range>1405.505908443809</range>
				<gx:altitudeMode>relativeToSeaFloor</gx:altitudeMode>
			</LookAt>
			<styleUrl>#m_ylw-pushpin</styleUrl>
			<Point>
				<gx:drawOrder>1</gx:drawOrder>
				<coordinates>-0.0748725877892098,44.40419242827449,0</coordinates>
			</Point>
		</Placemark>
		<Placemark>
			<name>POMPEJAC(33) - 04/04/2026 (18:00)</name>
			<visibility>0</visibility>
			<description>Nature de l&apos;évènement : Feu de broussailles
.
➡️ ➡️ Suivi complet :: https://discord.gg/jB8Bzpbx7V
➡️ ➡️ Suivi complet :: https://pirenfrance.wixsite.com/website</description>
			<LookAt>
				<longitude>-0.2898932176423952</longitude>
				<latitude>44.40492997286628</latitude>
				<altitude>0</altitude>
				<heading>0.0005327872536449572</heading>
				<tilt>14.13834826468381</tilt>
				<range>800.1610069020712</range>
				<gx:altitudeMode>relativeToSeaFloor</gx:altitudeMode>
			</LookAt>
			<styleUrl>#m_ylw-pushpin</styleUrl>
			<Point>
				<gx:drawOrder>1</gx:drawOrder>
				<coordinates>-0.2911384475172085,44.40495917929093,0</coordinates>
			</Point>
		</Placemark>
		<Placemark>
			<name>Roaillan (33) - 29/03/2026 (17h30)</name>
			<visibility>0</visibility>
			<description>Nature de l&apos;évènement : Feu de broussailles
Phase de lutte : en cours
.
#incendie #FeuxDeForêt
.
➡️ ➡️ Suivi complet :: https://discord.gg/jB8Bzpbx7V
➡️ ➡️ Suivi complet :: https://pirenfrance.wixsite.com/website

--
18:00 - Situation : 0.5 hectare
.
Moyens : 👨‍= xx / 🚒= 8 / ✈ABE= xx / 🚁 HBE= xx
--
21:00 - 🟢 Phase de lutte : éteint</description>
			<LookAt>
				<longitude>-0.3000458131803462</longitude>
				<latitude>44.48535150604127</latitude>
				<altitude>0</altitude>
				<heading>-1.912960518851923</heading>
				<tilt>13.27942242789567</tilt>
				<range>2104.819896174867</range>
				<gx:altitudeMode>relativeToSeaFloor</gx:altitudeMode>
			</LookAt>
			<styleUrl>#m_ylw-pushpin</styleUrl>
			<Point>
				<gx:drawOrder>1</gx:drawOrder>
				<coordinates>-0.3009938972580917,44.48857840143206,0</coordinates>
			</Point>
		</Placemark>
		<Placemark>
			<name>St-Martin-Curton (47)</name>
			<visibility>0</visibility>
			<description>Nature de l&apos;évènement : Feu de forêt
Phase de lutte : en cours
.
Situation : 2 hectares
Moyens : 👨‍= xx  /  🚒= 2  /  ✈ABE= xx  /  🚁 HBE= xx / Drone= 01</description>
			<LookAt>
				<longitude>-0.0416112402794</longitude>
				<latitude>44.34290422346469</latitude>
				<altitude>0</altitude>
				<heading>-1.742450577576568</heading>
				<tilt>24.81776513255202</tilt>
				<range>279.1012128734344</range>
				<gx:altitudeMode>relativeToSeaFloor</gx:altitudeMode>
			</LookAt>
			<styleUrl>#m_ylw-pushpin</styleUrl>
			<Point>
				<gx:drawOrder>1</gx:drawOrder>
				<coordinates>-0.04160426639299164,44.34274025515654,0</coordinates>
			</Point>
		</Placemark>
		<Placemark>
			<name>Bénévent-l&apos;Abbaye (23)</name>
			<visibility>0</visibility>
			<description>Nature de l&apos;évènement : Feu de forêt
Phase de lutte : en cours
.
Situation : xxx hectares
Moyens : 👨‍= xx  /  🚒= xx  /  ✈ABE= xx  /  🚁 HBE= xx</description>
			<LookAt>
				<longitude>1.62134350099006</longitude>
				<latitude>46.10413930481636</latitude>
				<altitude>0</altitude>
				<heading>-0.01689902075942375</heading>
				<tilt>20.73347575792216</tilt>
				<range>5767.866625293524</range>
				<gx:altitudeMode>relativeToSeaFloor</gx:altitudeMode>
			</LookAt>
			<styleUrl>#m_ylw-pushpin</styleUrl>
			<Point>
				<gx:drawOrder>1</gx:drawOrder>
				<coordinates>1.626629954360976,46.11670353412708,0</coordinates>
			</Point>
		</Placemark>
		<atom:link rel="app" href="https://www.google.com/earth/about/versions/#earth-pro" title="Google Earth Pro 7.3.7.1155"></atom:link>
	</Folder>
</Document>
</kml>
